[{"OBJECT_NAME":"TWILIGHT-1 OBJECT D","OBJECT_ID":"2026-004D","EPOCH":"2026-03-09T22:29:50.113248","MEAN_MOTION":14.87523301,"ECCENTRICITY":0.00105116,"INCLINATION":97.8027,"RA_OF_ASC_NODE":69.0991,"ARG_OF_PERICENTER":100.1958,"MEAN_ANOMALY":260.0444,"EPHEMERIS_TYPE":0,"CLASSIFICATION_TYPE":"U","NORAD_CAT_ID":67366,"ELEMENT_SET_NO":999,"REV_AT_EPOCH":853,"BSTAR":0.00074325575,"MEAN_MOTION_DOT":6.698e-5,"MEAN_MOTION_DDOT":0},{"OBJECT_NAME":"SL-14 R\/B","OBJECT_ID":"1984-111B","EPOCH":"2026-03-09T21:13:00.090048","MEAN_MOTION":14.86060168,"ECCENTRICITY":0.00194189,"INCLINATION":82.512,"RA_OF_ASC_NODE":256.2815,"ARG_OF_PERICENTER":336.2654,"MEAN_ANOMALY":23.7664,"EPHEMERIS_TYPE":0,"CLASSIFICATION_TYPE":"U","NORAD_CAT_ID":15370,"ELEMENT_SET_NO":999,"REV_AT_EPOCH":21590,"BSTAR":6.4730325e-5,"MEAN_MOTION_DOT":5.92e-6,"MEAN_MOTION_DDOT":0}]
